[{"OBJECT_NAME":"STARLINK-34633","OBJECT_ID":"2025-150Q","EPOCH":"2026-03-09T14:23:26.229696","MEAN_MOTION":14.9833498,"ECCENTRICITY":0.0003058,"INCLINATION":70.0019,"RA_OF_ASC_NODE":134.6704,"ARG_OF_PERICENTER":262.1025,"MEAN_ANOMALY":97.9787,"EPHEMERIS_TYPE":0,"CLASSIFICATION_TYPE":"U","NORAD_CAT_ID":64804,"ELEMENT_SET_NO":999,"REV_AT_EPOCH":3650,"BSTAR":0.00017584,"MEAN_MOTION_DOT":2.006e-5,"MEAN_MOTION_DDOT":0},{"OBJECT_NAME":"DEORBITSAIL","OBJECT_ID":"2015-032E","EPOCH":"2026-03-09T13:39:47.460384","MEAN_MOTION":15.02284863,"ECCENTRICITY":0.0012066,"INCLINATION":97.5981,"RA_OF_ASC_NODE":287.3228,"ARG_OF_PERICENTER":211.0438,"MEAN_ANOMALY":149.0075,"EPHEMERIS_TYPE":0,"CLASSIFICATION_TYPE":"U","NORAD_CAT_ID":40719,"ELEMENT_SET_NO":999,"REV_AT_EPOCH":57628,"BSTAR":0.0007398,"MEAN_MOTION_DOT":9.73e-5,"MEAN_MOTION_DDOT":0}]
